start=new Date('2021-10-18T00:00:00.000Z').valueOf();
sats=[{"MEAN_MOTION":"15.06392936","PERIAPSIS":"546.370","GP_ID":"187445489","NORAD_CAT_ID":"47170","MEAN_ELEMENT_THEORY":"SGP4","OBJECT_ID":"2020-088BA","APOAPSIS":"548.100","EPOCH":"2021-10-17T07:10:31.031328","ECCENTRICITY":"0.00012490","DECAY_DATE":null,"FILE":"3168566","ARG_OF_PERICENTER":"65.8592","EPHEMERIS_TYPE":"0","MEAN_ANOMALY":"294.2527","MEAN_MOTION_DOT":"-0.00000310","INCLINATION":"53.0539","CLASSIFICATION_TYPE":"U","LAUNCH_DATE":"2020-11-25","COUNTRY_CODE":"US","OBJECT_NAME":"STARLINK-1887","SITE":"AFETR","CENTER_NAME":"EARTH","PERIOD":"95.593","TLE_LINE2":"2 47170  53.0539 304.0165 0001249  65.8592 294.2527 15.06392936 50028","BSTAR":"-0.00000190230000","TLE_LINE1":"1 47170U 20088BA  21290.29897027 -.00000310  00000-0 -19023-5 0  9991","REF_FRAME":"TEME","TIME_SYSTEM":"UTC","SEMIMAJOR_AXIS":"6925.370","OBJECT_TYPE":"PAYLOAD","RA_OF_ASC_NODE":"304.0165","REV_AT_EPOCH":"5002","MEAN_MOTION_DDOT":"0.0000000000000","RCS_SIZE":"LARGE","ELEMENT_SET_NO":"999"},{"CLASSIFICATION_TYPE":"U","INCLINATION":"53.0557","LAUNCH_DATE":"2020-11-25","COUNTRY_CODE":"US","OBJECT_NAME":"STARLINK-1888","MEAN_MOTION":"15.06386528","MEAN_ELEMENT_THEORY":"SGP4","GP_ID":"187445240","PERIAPSIS":"546.381","NORAD_CAT_ID":"47171","APOAPSIS":"548.129","ECCENTRICITY":"0.00012620","EPOCH":"2021-10-17T07:38:23.251488","OBJECT_ID":"2020-088BB","MEAN_ANOMALY":"281.8284","EPHEMERIS_TYPE":"0","MEAN_MOTION_DOT":"-0.00000553","DECAY_DATE":null,"ARG_OF_PERICENTER":"78.2846","FILE":"3168566","RA_OF_ASC_NODE":"293.9250","OBJECT_TYPE":"PAYLOAD","MEAN_MOTION_DDOT":"0.0000000000000","REV_AT_EPOCH":"5016","ELEMENT_SET_NO":"999","RCS_SIZE":"LARGE","CENTER_NAME":"EARTH","PERIOD":"95.593","TLE_LINE2":"2 47171  53.0557 293.9250 0001262  78.2846 281.8284 15.06386528 50162","SITE":"AFETR","REF_FRAME":"TEME","TIME_SYSTEM":"UTC","BSTAR":"-0.00001825600000","TLE_LINE1":"1 47171U 20088BB  21290.31832467 -.00000553  00000-0 -18256-4 0  9997","SEMIMAJOR_AXIS":"6925.390"},{"SEMIMAJOR_AXIS":"6779.263","PERIOD":"92.583","CENTER_NAME":"EARTH","TLE_LINE2":"2 47172  53.0550 297.3032 0002005  46.3640 313.7537 15.55353355 50113","SITE":"AFETR","REF_FRAME":"TEME","TIME_SYSTEM":"UTC","BSTAR":"0.00018808000000","TLE_LINE1":"1 47172U 20088BC  21290.27969709  .00012541  00000-0  18808-3 0  9993","ELEMENT_SET_NO":"999","RCS_SIZE":"LARGE","OBJECT_TYPE":"PAYLOAD","RA_OF_ASC_NODE":"297.3032","MEAN_MOTION_DDOT":"0.0000000000000","REV_AT_EPOCH":"5011","APOAPSIS":"402.487","EPOCH":"2021-10-17T06:42:45.828576","ECCENTRICITY":"0.00020050","OBJECT_ID":"2020-088BC","MEAN_ANOMALY":"313.7537","EPHEMERIS_TYPE":"0","MEAN_MOTION_DOT":"0.00012541","DECAY_DATE":null,"ARG_OF_PERICENTER":"46.3640","FILE":"3168566","MEAN_MOTION":"15.55353355","MEAN_ELEMENT_THEORY":"SGP4","GP_ID":"187443988","PERIAPSIS":"399.768","NORAD_CAT_ID":"47172","LAUNCH_DATE":"2020-11-25","COUNTRY_CODE":"US","OBJECT_NAME":"STARLINK-1889","CLASSIFICATION_TYPE":"U","INCLINATION":"53.0550"},{"REV_AT_EPOCH":"5002","MEAN_MOTION_DDOT":"0.0000000000000","RA_OF_ASC_NODE":"303.9488","OBJECT_TYPE":"PAYLOAD","RCS_SIZE":"LARGE","ELEMENT_SET_NO":"999","TLE_LINE1":"1 47173U 20088BD  21290.31277091  .00001691  00000-0  13239-3 0  9992","BSTAR":"0.00013239000000","TIME_SYSTEM":"UTC","REF_FRAME":"TEME","SITE":"AFETR","TLE_LINE2":"2 47173  53.0549 303.9488 0001382  82.2497 277.8649 15.06397496 50021","CENTER_NAME":"EARTH","PERIOD":"95.592","SEMIMAJOR_AXIS":"6925.356","INCLINATION":"53.0549","CLASSIFICATION_TYPE":"U","OBJECT_NAME":"STARLINK-1890","COUNTRY_CODE":"US","LAUNCH_DATE":"2020-11-25","NORAD_CAT_ID":"47173","GP_ID":"187444238","PERIAPSIS":"546.264","MEAN_ELEMENT_THEORY":"SGP4","MEAN_MOTION":"15.06397496","FILE":"3168566","ARG_OF_PERICENTER":"82.2497","DECAY_DATE":null,"MEAN_MOTION_DOT":"0.00001691","MEAN_ANOMALY":"277.8649","EPHEMERIS_TYPE":"0","OBJECT_ID":"2020-088BD","ECCENTRICITY":"0.00013820","EPOCH":"2021-10-17T07:30:23.406624","APOAPSIS":"548.178"},{"SEMIMAJOR_AXIS":"6925.362","TIME_SYSTEM":"UTC","REF_FRAME":"TEME","TLE_LINE1":"1 47174U 20088BE  21290.25474102  .00001354  00000-0  10979-3 0  9992","BSTAR":"0.00010979000000","TLE_LINE2":"2 47174  53.0550 304.2131 0001345  75.8539 284.2599 15.06395569 50011","CENTER_NAME":"EARTH","PERIOD":"95.592","SITE":"AFETR","ELEMENT_SET_NO":"999","RCS_SIZE":"LARGE","MEAN_MOTION_DDOT":"0.0000000000000","REV_AT_EPOCH":"5001","OBJECT_TYPE":"PAYLOAD","RA_OF_ASC_NODE":"304.2131","MEAN_MOTION_DOT":"0.00001354","MEAN_ANOMALY":"284.2599","EPHEMERIS_TYPE":"0","ARG_OF_PERICENTER":"75.8539","FILE":"3168566","DECAY_DATE":null,"ECCENTRICITY":"0.00013450","EPOCH":"2021-10-17T06:06:49.624128","APOAPSIS":"548.159","OBJECT_ID":"2020-088BE","GP_ID":"187444990","PERIAPSIS":"546.296","MEAN_ELEMENT_THEORY":"SGP4","NORAD_CAT_ID":"47174","MEAN_MOTION":"15.06395569","OBJECT_NAME":"STARLINK-1891","COUNTRY_CODE":"US","LAUNCH_DATE":"2020-11-25","CLASSIFICATION_TYPE":"U","INCLINATION":"53.0550"},{"RCS_SIZE":"LARGE","ELEMENT_SET_NO":"999","OBJECT_TYPE":"PAYLOAD","RA_OF_ASC_NODE":"284.2024","REV_AT_EPOCH":"5029","MEAN_MOTION_DDOT":"0.0000000000000","SEMIMAJOR_AXIS":"6925.379","SITE":"AFETR","TLE_LINE2":"2 47175  53.0548 284.2024 0001379  65.7920 294.3213 15.06390199 50295","PERIOD":"95.593","CENTER_NAME":"EARTH","TLE_LINE1":"1 47175U 20088BF  21290.25289533 -.00000179  00000-0  68851-5 0  9994","BSTAR":"0.00000688510000","TIME_SYSTEM":"UTC","REF_FRAME":"TEME","LAUNCH_DATE":"2020-11-25","OBJECT_NAME":"STARLINK-1895","COUNTRY_CODE":"US","INCLINATION":"53.0548","CLASSIFICATION_TYPE":"U","OBJECT_ID":"2020-088BF","ECCENTRICITY":"0.00013790","EPOCH":"2021-10-17T06:04:10.156512","APOAPSIS":"548.199","ARG_OF_PERICENTER":"65.7920","FILE":"3168566","DECAY_DATE":null,"MEAN_MOTION_DOT":"-0.00000179","EPHEMERIS_TYPE":"0","MEAN_ANOMALY":"294.3213","MEAN_MOTION":"15.06390199","MEAN_ELEMENT_THEORY":"SGP4","GP_ID":"187445740","PERIAPSIS":"546.289","NORAD_CAT_ID":"47175"},{"CLASSIFICATION_TYPE":"U","INCLINATION":"53.0533","LAUNCH_DATE":"2020-11-25","COUNTRY_CODE":"US","OBJECT_NAME":"STARLINK-1907","MEAN_MOTION":"15.06378965","GP_ID":"187444488","PERIAPSIS":"546.376","NORAD_CAT_ID":"47177","MEAN_ELEMENT_THEORY":"SGP4","APOAPSIS":"548.180","ECCENTRICITY":"0.00013030","EPOCH":"2021-10-17T07:17:11.022720","OBJECT_ID":"2020-088BH","EPHEMERIS_TYPE":"0","MEAN_ANOMALY":"281.5401","MEAN_MOTION_DOT":"0.00001165","DECAY_DATE":null,"ARG_OF_PERICENTER":"78.5734","FILE":"3168566","OBJECT_TYPE":"PAYLOAD","RA_OF_ASC_NODE":"293.9968","MEAN_MOTION_DDOT":"0.0000000000000","REV_AT_EPOCH":"5016","ELEMENT_SET_NO":"999","RCS_SIZE":"LARGE","CENTER_NAME":"EARTH","PERIOD":"95.593","TLE_LINE2":"2 47177  53.0533 293.9968 0001303  78.5734 281.5401 15.06378965 50167","SITE":"AFETR","REF_FRAME":"TEME","TIME_SYSTEM":"UTC","BSTAR":"0.00009713300000","TLE_LINE1":"1 47177U 20088BH  21290.30359980  .00001165  00000-0  97133-4 0  9995","SEMIMAJOR_AXIS":"6925.413"},{"RA_OF_ASC_NODE":"304.0649","OBJECT_TYPE":"PAYLOAD","REV_AT_EPOCH":"5001","MEAN_MOTION_DDOT":"0.0000000000000","RCS_SIZE":"LARGE","ELEMENT_SET_NO":"999","SITE":"AFETR","TLE_LINE2":"2 47178  53.0548 304.0649 0001434  74.7316 285.3831 15.06391185 50015","CENTER_NAME":"EARTH","PERIOD":"95.593","TLE_LINE1":"1 47178U 20088BJ  21290.28423363  .00002966  00000-0  21800-3 0  9997","BSTAR":"0.00021800000000","TIME_SYSTEM":"UTC","REF_FRAME":"TEME","SEMIMAJOR_AXIS":"6925.376","INCLINATION":"53.0548","CLASSIFICATION_TYPE":"U","LAUNCH_DATE":"2020-11-25","OBJECT_NAME":"STARLINK-1912","COUNTRY_CODE":"US","MEAN_MOTION":"15.06391185","NORAD_CAT_ID":"47178","GP_ID":"187444738","PERIAPSIS":"546.247","MEAN_ELEMENT_THEORY":"SGP4","OBJECT_ID":"2020-088BJ","EPOCH":"2021-10-17T06:49:17.785632","ECCENTRICITY":"0.00014340","APOAPSIS":"548.234","FILE":"3168566","ARG_OF_PERICENTER":"74.7316","DECAY_DATE":null,"MEAN_MOTION_DOT":"0.00002966","EPHEMERIS_TYPE":"0","MEAN_ANOMALY":"285.3831"},{"CLASSIFICATION_TYPE":"U","INCLINATION":"53.0539","COUNTRY_CODE":"US","OBJECT_NAME":"STARLINK-1913","LAUNCH_DATE":"2020-11-25","MEAN_ELEMENT_THEORY":"SGP4","GP_ID":"187445490","PERIAPSIS":"546.362","NORAD_CAT_ID":"47179","MEAN_MOTION":"15.06389584","EPHEMERIS_TYPE":"0","MEAN_ANOMALY":"283.2243","MEAN_MOTION_DOT":"0.00001752","DECAY_DATE":null,"FILE":"3168566","ARG_OF_PERICENTER":"76.8889","APOAPSIS":"548.129","EPOCH":"2021-10-17T06:32:03.345216","ECCENTRICITY":"0.00012760","OBJECT_ID":"2020-088BK","MEAN_MOTION_DDOT":"0.0000000000000","REV_AT_EPOCH":"4987","OBJECT_TYPE":"PAYLOAD","RA_OF_ASC_NODE":"314.1295","ELEMENT_SET_NO":"999","RCS_SIZE":"LARGE","REF_FRAME":"TEME","TIME_SYSTEM":"UTC","BSTAR":"0.00013653000000","TLE_LINE1":"1 47179U 20088BK  21290.27226094  .00001752  00000-0  13653-3 0  9998","CENTER_NAME":"EARTH","PERIOD":"95.593","TLE_LINE2":"2 47179  53.0539 314.1295 0001276  76.8889 283.2243 15.06389584 49873","SITE":"AFETR","SEMIMAJOR_AXIS":"6925.380"},{"BSTAR":"0.00210970000000","TLE_LINE1":"1 47180U 20088BL  21290.24466956  .00599941  00000-0  21097-2 0  9992","REF_FRAME":"TEME","TIME_SYSTEM":"UTC","SITE":"AFETR","PERIOD":"90.730","CENTER_NAME":"EARTH","TLE_LINE2":"2 47180  53.0503 290.5378 0001587 104.6398 255.4802 15.87128323 50207","SEMIMAJOR_AXIS":"6688.476","REV_AT_EPOCH":"5020","MEAN_MOTION_DDOT":"0.0000000000000","RA_OF_ASC_NODE":"290.5378","OBJECT_TYPE":"PAYLOAD","RCS_SIZE":"LARGE","ELEMENT_SET_NO":"999","GP_ID":"187445241","MEAN_ELEMENT_THEORY":"SGP4","PERIAPSIS":"309.279","NORAD_CAT_ID":"47180","MEAN_MOTION":"15.87128323","DECAY_DATE":null,"FILE":"3168566","ARG_OF_PERICENTER":"104.6398","MEAN_ANOMALY":"255.4802","EPHEMERIS_TYPE":"0","MEAN_MOTION_DOT":"0.00599941","OBJECT_ID":"2020-088BL","APOAPSIS":"311.402","EPOCH":"2021-10-17T05:52:19.449984","ECCENTRICITY":"0.00015870","INCLINATION":"53.0503","CLASSIFICATION_TYPE":"U","COUNTRY_CODE":"US","OBJECT_NAME":"STARLINK-1914","LAUNCH_DATE":"2020-11-25"}];
